0 COSMOS 1275 DEB
1 12755U 81053CY  13281.78945451  .00003902  00000-0  12348-2 0  5748
2 12755 082.9439 281.8724 0014444 110.0170 306.7193 14.39902839655065
0 COSMOS 1275 DEB
1 12755U 81053CY  13283.47615042  .00005371  00000-0  17008-2 0  5757
2 12755 082.9439 280.4816 0014460 105.4204 049.3788 14.39922430655302
0 COSMOS 1275 DEB
1 12755U 81053CY  13285.75118135  .00004726  00000-0  14954-2 0  5762
2 12755 082.9436 278.6056 0014533 099.0899 321.8415 14.39940154655637
0 COSMOS 1275 DEB
1 12755U 81053CY  13288.04598630  .00008196  00000-0  25953-2 0  5776
2 12755 082.9431 276.7127 0014605 092.5326 337.1304 14.39962405655969
0 COSMOS 1275 DEB
1 12755U 81053CY  13290.14183013  .00006681  00000-0  21138-2 0  5784
2 12755 082.9432 274.9837 0014671 086.5572 041.2685 14.39984832656264
0 COSMOS 1275 DEB
1 12755U 81053CY  13292.15589931  .00005702  00000-0  18026-2 0  5792
2 12755 082.9438 273.3219 0014761 080.9128 041.5726 14.40007397656557
0 COSMOS 1275 DEB
1 12755U 81053CY  13294.38588027  .00007724  00000-0  24420-2 0  5807
2 12755 082.9445 271.4823 0014760 074.9077 081.0416 14.40030697656879
